{
    "links": {
        "self": "http://www.neowsapp.com/rest/v1/neo/3694520?api_key=iIulBulltgU6a56xZRHN4H3l9WmuAYTsLGpBGhQ2"
    },
    "id": "3694520",
    "neo_reference_id": "3694520",
    "name": "(2014 UV57)",
    "designation": "2014 UV57",
    "nasa_jpl_url": "http://ssd.jpl.nasa.gov/sbdb.cgi?sstr=3694520",
    "absolute_magnitude_h": 25.6,
    "estimated_diameter": {
        "kilometers": {
            "estimated_diameter_min": 0.0201629919,
            "estimated_diameter_max": 0.0450858206
        },
        "meters": {
            "estimated_diameter_min": 20.1629919443,
            "estimated_diameter_max": 45.0858206172
        },
        "miles": {
            "estimated_diameter_min": 0.0125286985,
            "estimated_diameter_max": 0.0280150214
        },
        "feet": {
            "estimated_diameter_min": 66.1515504905,
            "estimated_diameter_max": 147.9193637137
        }
    },
    "is_potentially_hazardous_asteroid": false,
    "close_approach_data": [
        {
            "close_approach_date": "2014-11-09",
            "close_approach_date_full": "2014-Nov-09 22:22",
            "epoch_date_close_approach": 1415571720000,
            "relative_velocity": {
                "kilometers_per_second": "7.5985488208",
                "kilometers_per_hour": "27354.7757549317",
                "miles_per_hour": "16997.1938572796"
            },
            "miss_distance": {
                "astronomical": "0.0462553675",
                "lunar": "17.9933379575",
                "kilometers": "6919704.454067225",
                "miles": "4299704.967788705"
            },
            "orbiting_body": "Earth"
        },
        {
            "close_approach_date": "2172-01-02",
            "close_approach_date_full": "2172-Jan-02 20:10",
            "epoch_date_close_approach": 6374664600000,
            "relative_velocity": {
                "kilometers_per_second": "16.8542544977",
                "kilometers_per_hour": "60675.3161915922",
                "miles_per_hour": "37701.2818858257"
            },
            "miss_distance": {
                "astronomical": "0.2935142196",
                "lunar": "114.1770314244",
                "kilometers": "43909102.066872252",
                "miles": "27283850.8553789976"
            },
            "orbiting_body": "Earth"
        }
    ],
    "orbital_data": {
        "orbit_id": "10",
        "orbit_determination_date": "2017-04-06 08:37:54",
        "first_observation_date": "2014-10-25",
        "last_observation_date": "2014-11-26",
        "data_arc_in_days": 32,
        "observations_used": 35,
        "orbit_uncertainty": "7",
        "minimum_orbit_intersection": ".0353438",
        "jupiter_tisserand_invariant": "2.982",
        "epoch_osculation": "2459000.5",
        "eccentricity": ".6374379918948424",
        "semi_major_axis": "2.813672114727465",
        "inclination": "2.147433770570199",
        "ascending_node_longitude": "27.21703679333023",
        "orbital_period": "1723.886452034704",
        "perihelion_distance": "1.020130612065075",
        "perihelion_argument": "27.41095956202716",
        "aphelion_distance": "4.607213617389855",
        "perihelion_time": "2458704.540927036171",
        "mean_anomaly": "61.80526921667212",
        "mean_motion": ".2088304595555536",
        "equinox": "J2000",
        "orbit_class": {
            "orbit_class_type": "AMO",
            "orbit_class_description": "Near-Earth asteroid orbits similar to that of 1221 Amor",
            "orbit_class_range": "1.017 AU < q (perihelion) < 1.3 AU"
        }
    },
    "is_sentry_object": false
}